[{"OBJECT_NAME":"STARLINK-1657","OBJECT_ID":"2020-062AF","EPOCH":"2026-03-10T00:00:02.999808","MEAN_MOTION":15.83582063,"ECCENTRICITY":0.00043426,"INCLINATION":53.0512,"RA_OF_ASC_NODE":327.5676,"ARG_OF_PERICENTER":250.0794,"MEAN_ANOMALY":145.7547,"EPHEMERIS_TYPE":0,"CLASSIFICATION_TYPE":"U","NORAD_CAT_ID":46354,"ELEMENT_SET_NO":999,"REV_AT_EPOCH":598,"BSTAR":0.0010591228,"MEAN_MOTION_DOT":0.00243389,"MEAN_MOTION_DDOT":0},{"OBJECT_NAME":"STARLINK-36779","OBJECT_ID":"2026-034V","EPOCH":"2026-03-09T18:44:03.846912","MEAN_MOTION":15.80967167,"ECCENTRICITY":8.179e-5,"INCLINATION":53.1593,"RA_OF_ASC_NODE":210.7312,"ARG_OF_PERICENTER":93.5521,"MEAN_ANOMALY":266.5596,"EPHEMERIS_TYPE":0,"CLASSIFICATION_TYPE":"U","NORAD_CAT_ID":67869,"ELEMENT_SET_NO":999,"REV_AT_EPOCH":395,"BSTAR":0.0014578987,"MEAN_MOTION_DOT":0.00298511,"MEAN_MOTION_DDOT":0}]
